{
  "type": "FeatureCollection",
  "features": [
    {
      "type": "Feature",
      "properties": {
        "OBJECT_NAME": "SOYUZ-MS 28",
        "OBJECT_ID": "2025-275A",
        "EPOCH": "2025-11-29T21:34:37.466400",
        "MEAN_MOTION": 15.49196254,
        "ECCENTRICITY": 0.0003727,
        "INCLINATION": 51.6312,
        "RA_OF_ASC_NODE": 206.0453,
        "ARG_OF_PERICENTER": 184.4038,
        "MEAN_ANOMALY": 175.6918,
        "EPHEMERIS_TYPE": 0,
        "CLASSIFICATION_TYPE": "U",
        "NORAD_CAT_ID": 66664,
        "ELEMENT_SET_NO": 999,
        "REV_AT_EPOCH": 45,
        "BSTAR": 0.00016851,
        "MEAN_MOTION_DOT": 8.908e-05,
        "MEAN_MOTION_DDOT": 0,
        "norad_id": 66664,
        "name": "SOYUZ-MS 28",
        "group": "active",
        "longitude_deg": NaN,
        "latitude_deg": NaN,
        "alt_km": NaN,
        "orbit_class": "HEO",
        "timestamp": "2025-11-30T09:33:02.499921+00:00"
      },
      "geometry": {
        "type": "Point",
        "coordinates": [
          NaN,
          NaN
        ]
      }
    },
    {
      "type": "Feature",
      "properties": {
        "OBJECT_NAME": "ISS (ZARYA)",
        "OBJECT_ID": "1998-067A",
        "EPOCH": "2025-11-29T21:34:37.466400",
        "MEAN_MOTION": 15.49196254,
        "ECCENTRICITY": 0.0003727,
        "INCLINATION": 51.6312,
        "RA_OF_ASC_NODE": 206.0453,
        "ARG_OF_PERICENTER": 184.4038,
        "MEAN_ANOMALY": 175.6918,
        "EPHEMERIS_TYPE": 0,
        "CLASSIFICATION_TYPE": "U",
        "NORAD_CAT_ID": 25544,
        "ELEMENT_SET_NO": 999,
        "REV_AT_EPOCH": 54086,
        "BSTAR": 0.00016851,
        "MEAN_MOTION_DOT": 8.908e-05,
        "MEAN_MOTION_DDOT": 0,
        "norad_id": 25544,
        "name": "ISS (ZARYA)",
        "group": "active",
        "longitude_deg": NaN,
        "latitude_deg": NaN,
        "alt_km": NaN,
        "orbit_class": "HEO",
        "timestamp": "2025-11-30T09:33:02.499934+00:00"
      },
      "geometry": {
        "type": "Point",
        "coordinates": [
          NaN,
          NaN
        ]
      }
    },
    {
      "type": "Feature",
      "properties": {
        "OBJECT_NAME": "CSS (TIANHE)",
        "OBJECT_ID": "2021-035A",
        "EPOCH": "2025-11-30T00:41:37.538016",
        "MEAN_MOTION": 15.5841209,
        "ECCENTRICITY": 0.0010548,
        "INCLINATION": 41.4664,
        "RA_OF_ASC_NODE": 93.8273,
        "ARG_OF_PERICENTER": 296.7177,
        "MEAN_ANOMALY": 63.2581,
        "EPHEMERIS_TYPE": 0,
        "CLASSIFICATION_TYPE": "U",
        "NORAD_CAT_ID": 48274,
        "ELEMENT_SET_NO": 999,
        "REV_AT_EPOCH": 26204,
        "BSTAR": 0.00019848,
        "MEAN_MOTION_DOT": 0.00015274,
        "MEAN_MOTION_DDOT": 0,
        "norad_id": 48274,
        "name": "CSS (TIANHE)",
        "group": "active",
        "longitude_deg": NaN,
        "latitude_deg": NaN,
        "alt_km": NaN,
        "orbit_class": "HEO",
        "timestamp": "2025-11-30T09:33:02.499940+00:00"
      },
      "geometry": {
        "type": "Point",
        "coordinates": [
          NaN,
          NaN
        ]
      }
    },
    {
      "type": "Feature",
      "properties": {
        "OBJECT_NAME": "ISS (NAUKA)",
        "OBJECT_ID": "2021-066A",
        "EPOCH": "2025-11-29T02:59:56.376384",
        "MEAN_MOTION": 15.49180644,
        "ECCENTRICITY": 0.00037368,
        "INCLINATION": 51.6312,
        "RA_OF_ASC_NODE": 209.8765,
        "ARG_OF_PERICENTER": 181.3383,
        "MEAN_ANOMALY": 178.7596,
        "EPHEMERIS_TYPE": 0,
        "CLASSIFICATION_TYPE": "U",
        "NORAD_CAT_ID": 49044,
        "ELEMENT_SET_NO": 999,
        "REV_AT_EPOCH": 23044,
        "BSTAR": 0.0001679519,
        "MEAN_MOTION_DOT": 8.872e-05,
        "MEAN_MOTION_DDOT": 0,
        "norad_id": 49044,
        "name": "ISS (NAUKA)",
        "group": "active",
        "longitude_deg": NaN,
        "latitude_deg": NaN,
        "alt_km": NaN,
        "orbit_class": "HEO",
        "timestamp": "2025-11-30T09:33:02.499947+00:00"
      },
      "geometry": {
        "type": "Point",
        "coordinates": [
          NaN,
          NaN
        ]
      }
    },
    {
      "type": "Feature",
      "properties": {
        "OBJECT_NAME": "CSS (WENTIAN)",
        "OBJECT_ID": "2022-085A",
        "EPOCH": "2025-11-29T06:14:14.206560",
        "MEAN_MOTION": 15.58389811,
        "ECCENTRICITY": 0.00106693,
        "INCLINATION": 41.4663,
        "RA_OF_ASC_NODE": 98.4914,
        "ARG_OF_PERICENTER": 292.2705,
        "MEAN_ANOMALY": 67.7001,
        "EPHEMERIS_TYPE": 0,
        "CLASSIFICATION_TYPE": "U",
        "NORAD_CAT_ID": 53239,
        "ELEMENT_SET_NO": 999,
        "REV_AT_EPOCH": 17384,
        "BSTAR": 0.00020254705,
        "MEAN_MOTION_DOT": 0.00015582,
        "MEAN_MOTION_DDOT": 0,
        "norad_id": 53239,
        "name": "CSS (WENTIAN)",
        "group": "active",
        "longitude_deg": NaN,
        "latitude_deg": NaN,
        "alt_km": NaN,
        "orbit_class": "HEO",
        "timestamp": "2025-11-30T09:33:02.499962+00:00"
      },
      "geometry": {
        "type": "Point",
        "coordinates": [
          NaN,
          NaN
        ]
      }
    },
    {
      "type": "Feature",
      "properties": {
        "OBJECT_NAME": "CSS (MENGTIAN)",
        "OBJECT_ID": "2022-143A",
        "EPOCH": "2025-11-29T06:14:14.206560",
        "MEAN_MOTION": 15.58389811,
        "ECCENTRICITY": 0.00106693,
        "INCLINATION": 41.4663,
        "RA_OF_ASC_NODE": 98.4914,
        "ARG_OF_PERICENTER": 292.2705,
        "MEAN_ANOMALY": 67.7001,
        "EPHEMERIS_TYPE": 0,
        "CLASSIFICATION_TYPE": "U",
        "NORAD_CAT_ID": 54216,
        "ELEMENT_SET_NO": 999,
        "REV_AT_EPOCH": 15864,
        "BSTAR": 0.00020254705,
        "MEAN_MOTION_DOT": 0.00015582,
        "MEAN_MOTION_DDOT": 0,
        "norad_id": 54216,
        "name": "CSS (MENGTIAN)",
        "group": "active",
        "longitude_deg": NaN,
        "latitude_deg": NaN,
        "alt_km": NaN,
        "orbit_class": "HEO",
        "timestamp": "2025-11-30T09:33:02.499969+00:00"
      },
      "geometry": {
        "type": "Point",
        "coordinates": [
          NaN,
          NaN
        ]
      }
    },
    {
      "type": "Feature",
      "properties": {
        "OBJECT_NAME": "SOYUZ-MS 27",
        "OBJECT_ID": "2025-072A",
        "EPOCH": "2025-11-29T02:59:56.376384",
        "MEAN_MOTION": 15.49180644,
        "ECCENTRICITY": 0.00037368,
        "INCLINATION": 51.6312,
        "RA_OF_ASC_NODE": 209.8765,
        "ARG_OF_PERICENTER": 181.3383,
        "MEAN_ANOMALY": 178.7596,
        "EPHEMERIS_TYPE": 0,
        "CLASSIFICATION_TYPE": "U",
        "NORAD_CAT_ID": 63520,
        "ELEMENT_SET_NO": 999,
        "REV_AT_EPOCH": 2020,
        "BSTAR": 0.0001679519,
        "MEAN_MOTION_DOT": 8.872e-05,
        "MEAN_MOTION_DDOT": 0,
        "norad_id": 63520,
        "name": "SOYUZ-MS 27",
        "group": "active",
        "longitude_deg": NaN,
        "latitude_deg": NaN,
        "alt_km": NaN,
        "orbit_class": "HEO",
        "timestamp": "2025-11-30T09:33:02.499976+00:00"
      },
      "geometry": {
        "type": "Point",
        "coordinates": [
          NaN,
          NaN
        ]
      }
    },
    {
      "type": "Feature",
      "properties": {
        "OBJECT_NAME": "SHENZHOU-20 (SZ-20)",
        "OBJECT_ID": "2025-082A",
        "EPOCH": "2025-11-29T06:14:14.206560",
        "MEAN_MOTION": 15.58389811,
        "ECCENTRICITY": 0.00106693,
        "INCLINATION": 41.4663,
        "RA_OF_ASC_NODE": 98.4914,
        "ARG_OF_PERICENTER": 292.2705,
        "MEAN_ANOMALY": 67.7001,
        "EPHEMERIS_TYPE": 0,
        "CLASSIFICATION_TYPE": "U",
        "NORAD_CAT_ID": 63632,
        "ELEMENT_SET_NO": 999,
        "REV_AT_EPOCH": 25530,
        "BSTAR": 0.00020254705,
        "MEAN_MOTION_DOT": 0.00015582,
        "MEAN_MOTION_DDOT": 0,
        "norad_id": 63632,
        "name": "SHENZHOU-20 (SZ-20)",
        "group": "active",
        "longitude_deg": NaN,
        "latitude_deg": NaN,
        "alt_km": NaN,
        "orbit_class": "HEO",
        "timestamp": "2025-11-30T09:33:02.499982+00:00"
      },
      "geometry": {
        "type": "Point",
        "coordinates": [
          NaN,
          NaN
        ]
      }
    }
  ]
}